POLYITAN-1              
1 40042U 14033AJ  26203.08427631  .00021296  00000+0  64050-3 0  9992
2 40042  98.0941 232.6768 0007210  43.5677 316.6132 15.34394135658941
TIGRISAT                
1 40043U 14033AK  26203.21623035  .00001200  00000+0  14344-3 0  9998
2 40043  97.7874 352.4358 0048103 320.9395  38.8350 14.85263928650828
AEROCUBE 6A             
1 40045U 14033AM  26203.01924188  .00006076  00000+0  50747-3 0  9994
2 40045  97.7273   9.6095 0036089 257.4142 102.3043 14.98399557651836
AEROCUBE 6B             
1 40046U 14033AN  26202.98773221  .00005555  00000+0  44654-3 0  9991
2 40046  97.7205   9.4361 0038257 246.1598 113.5613 14.99844908651973
CANX-4                  
1 40055U 14034C   26202.12915680  .00000562  00000+0  79323-4 0  9990
2 40055  98.3075  78.6814 0011372 261.4644  98.5279 14.81317693649555
CANX-5                  
1 40056U 14034D   26203.14040394  .00000667  00000+0  92750-4 0  9990
2 40056  98.3076  79.7750 0011380 258.1020 101.8916 14.81336903640516
UKUBE-1                 
1 40074U 14037F   26203.00273654  .00008356  00000+0  46405-3 0  9993
2 40074  98.4254 209.9476 0003134  76.9955 283.1624 15.14023415653824
BRITE-PL2 (HEWELIUSZ)   
1 40119U 14049B   26202.78364133  .00001447  00000+0  13870-3 0  9997
2 40119  97.9121 315.0574 0013698   0.8045 359.3195 14.94700171646617
AEROCUBE 5C             
1 40965U 15058B   26203.17066015  .00003336  00000+0  29457-3 0  9996
2 40965  64.7664 153.7440 0132863  49.7790 311.4857 14.91609910370876
AEROCUBE 7              
1 40966U 15058C   26203.26676023  .00005215  00000+0  41235-3 0  9999
2 40966  64.7619 134.9185 0122555  48.0509 313.0971 14.95963652371204
FOX-1A (AO-85)          
1 40967U 15058D   26203.29670670  .00003414  00000+0  30486-3 0  9990
2 40967  64.7739 169.8597 0132969  43.1199 318.0235 14.91122011118808
SINOD-D 1               
1 40968U 15058E   26203.30741598  .00005472  00000+0  43080-3 0  9991
2 40968  64.7744 148.9094 0121647  39.4656 321.5240 14.96140076121919
SNAP-3 ALICE            
1 40970U 15058G   26202.81964392  .00164560  00000+0  13862-2 0  9996
2 40970  64.7492 343.4231 0026296 344.3916  15.6420 15.68630335122305
LMRST-SAT               
1 40971U 15058H   26203.12687534  .00003029  00000+0  27405-3 0  9993
2 40971  64.7746 166.7926 0134467  45.1760 316.0187 14.90733819118766
SNAP-3 EDDIE            
1 40972U 15058J   26202.78113421  .00183998  00000+0  14492-2 0  9999
2 40972  64.7407 334.0108 0027522 347.0844  12.9598 15.70146276124447
PROPCUBE 3              
1 40973U 15058K   26203.07610941  .00004517  00000+0  37048-3 0  9994
2 40973  64.7679 143.5122 0126286  46.3815 314.7691 14.94458968120017
BISONSAT                
1 40974U 15058L   26202.98089666  .00013682  00000+0  63849-3 0  9999
2 40974  64.7585  61.0694 0082716  32.8987 327.7246 15.17053963120899
SNAP-3 JIMI             
1 40975U 15058M   26203.13350360  .00007502  00000+0  50510-3 0  9995
2 40975  64.7644 109.1716 0108321  41.6398 319.2903 15.02678901119477
PROPCUBE 1 (FLORA)      
1 40976U 15058N   26203.18110063  .00002778  00000+0  26289-3 0  9991
2 40976  64.7730 186.7673 0133020  47.4252 313.7992 14.89355158121474
SINOD-D 3               
1 40977U 15058P   26203.31417609  .00004767  00000+0  39710-3 0  9996
2 40977  64.7714 166.1100 0121626  44.4073 316.6714 14.94218075120005
RAVAN                   
1 41849U 16067B   26202.24802540  .00048686  00000+0  65043-3 0  9995
2 41849  97.9829  95.8383 0003121 189.7470 170.3724 15.57919015532996
CELTEE 1                
1 41850U 16067C   26203.10099103  .00004764  00000+0  22490-3 0  9994
2 41850  98.0633  72.0491 0002468 101.0486 259.1025 15.19987120531187
OPTICUBE 04             
1 41851U 16067D   26203.14034242  .00001842  00000+0  11815-3 0  9995
2 41851  98.0670  57.2449 0015619   5.0650 355.0733 15.09792007530442
AEROCUBE 8D             
1 41852U 16067E   26201.89006383  .00005027  00000+0  20585-3 0  9994
2 41852  98.0635  74.6276 0004233  42.1068 318.0492 15.24818070531202
AEROCUBE 8C             
1 41853U 16067F   26203.15608989  .00007422  00000+0  29981-3 0  9996
2 41853  98.0510  73.1735 0003774 312.5281  47.5636 15.25090542531390
CORVUS BC2              
1 42846U 17042X   26203.00174861  .00002791  00000+0  19276-3 0  9994
2 42846  97.4098   3.0090 0012737 359.4620   0.6592 15.06483073492301
CORVUS BC1              
1 42847U 17042Y   26202.99253482  .00002944  00000+0  20227-3 0  9997
2 42847  97.4131   3.8368 0010982 335.6933  24.3775 15.06649513492331
MAKERSAT 0              
1 43016U 17073D   26203.17461343  .00022676  00000+0  59187-3 0  9999
2 43016  97.4572  85.9833 0105730 147.5495 213.2308 15.33199943471825
SIRION PATHFINDER-2     
1 43759U 18099B   26203.06247618  .00004175  00000+0  22806-3 0  9999
2 43759  97.4235 251.2931 0009208 168.2488 191.8961 15.14817039417904
CORVUS BC4              
1 43767U 18099K   26203.05050385  .00004109  00000+0  23798-3 0  9998
2 43767  97.4051 245.0119 0006875 231.7907 128.2706 15.12739046417671
