OBJECT_NAME,OBJECT_ID,EPOCH,MEAN_MOTION,ECCENTRICITY,INCLINATION,RA_OF_ASC_NODE,ARG_OF_PERICENTER,MEAN_ANOMALY,EPHEMERIS_TYPE,CLASSIFICATION_TYPE,NORAD_CAT_ID,ELEMENT_SET_NO,REV_AT_EPOCH,BSTAR,MEAN_MOTION_DOT,MEAN_MOTION_DDOT
POLYITAN-1,2014-033AJ,2026-07-22T02:01:21.473184,15.34394135,.00072102,98.0941,232.6768,43.5677,316.6132,0,U,40042,999,65894,.64049528E-3,.21296E-3,0
TIGRISAT,2014-033AK,2026-07-22T05:11:22.302240,14.85263928,.00481036,97.7874,352.4358,320.9395,38.8350,0,U,40043,999,65082,.14344383E-3,.12E-4,0
AEROCUBE 6A,2014-033AM,2026-07-22T00:27:42.498432,14.98399557,.00360891,97.7273,9.6095,257.4142,102.3043,0,U,40045,999,65183,.50746973E-3,.6076E-4,0
AEROCUBE 6B,2014-033AN,2026-07-21T23:42:20.062944,14.99844908,.00382573,97.7205,9.4361,246.1598,113.5613,0,U,40046,999,65197,.44654243E-3,.5555E-4,0
CANX-4,2014-034C,2026-07-21T03:05:59.147520,14.81317693,.00113729,98.3075,78.6814,261.4644,98.5279,0,U,40055,999,64955,.79323269E-4,.562E-5,0
CANX-5,2014-034D,2026-07-22T03:22:10.900416,14.81336903,.001138,98.3076,79.7750,258.1020,101.8916,0,U,40056,999,64051,.92749759E-4,.667E-5,0
UKUBE-1,2014-037F,2026-07-22T00:03:56.437056,15.14023415,.00031348,98.4254,209.9476,76.9955,283.1624,0,U,40074,999,65382,.4640491E-3,.8356E-4,0
BRITE-PL2 (HEWELIUSZ),2014-049B,2026-07-21T18:48:26.610912,14.94700171,.00136983,97.9121,315.0574,0.8045,359.3195,0,U,40119,999,64661,.13870223E-3,.1447E-4,0
AEROCUBE 5C,2015-058B,2026-07-22T04:05:45.036960,14.91609910,.01328634,64.7664,153.7440,49.7790,311.4857,0,U,40965,999,37087,.29457213E-3,.3336E-4,0
AEROCUBE 7,2015-058C,2026-07-22T06:24:08.083872,14.95963652,.01225557,64.7619,134.9185,48.0509,313.0971,0,U,40966,999,37120,.41234726E-3,.5215E-4,0
FOX-1A (AO-85),2015-058D,2026-07-22T07:07:15.458880,14.91122011,.01329692,64.7739,169.8597,43.1199,318.0235,0,U,40967,999,11880,.30485533E-3,.3414E-4,0
SINOD-D 1,2015-058E,2026-07-22T07:22:40.740672,14.96140076,.01216474,64.7744,148.9094,39.4656,321.5240,0,U,40968,999,12191,.43079661E-3,.5472E-4,0
SNAP-3 ALICE,2015-058G,2026-07-21T19:40:17.234688,15.68630335,.00262961,64.7492,343.4231,344.3916,15.6420,0,U,40970,999,12230,.13862395E-2,.16456E-2,0
LMRST-SAT,2015-058H,2026-07-22T03:02:42.029376,14.90733819,.01344676,64.7746,166.7926,45.1760,316.0187,0,U,40971,999,11876,.27404742E-3,.3029E-4,0
SNAP-3 EDDIE,2015-058J,2026-07-21T18:44:49.995744,15.70146276,.00275224,64.7407,334.0108,347.0844,12.9598,0,U,40972,999,12444,.14491926E-2,.183998E-2,0
PROPCUBE 3,2015-058K,2026-07-22T01:49:35.853024,14.94458968,.01262862,64.7679,143.5122,46.3815,314.7691,0,U,40973,999,12001,.37047868E-3,.4517E-4,0
BISONSAT,2015-058L,2026-07-21T23:32:29.471424,15.17053963,.00827168,64.7585,61.0694,32.8987,327.7246,0,U,40974,999,12089,.63848961E-3,.13682E-3,0
SNAP-3 JIMI,2015-058M,2026-07-22T03:12:14.711040,15.02678901,.01083216,64.7644,109.1716,41.6398,319.2903,0,U,40975,999,11947,.50510238E-3,.7502E-4,0
PROPCUBE 1 (FLORA),2015-058N,2026-07-22T04:20:47.094432,14.89355158,.01330201,64.7730,186.7673,47.4252,313.7992,0,U,40976,999,12147,.26289231E-3,.2778E-4,0
SINOD-D 3,2015-058P,2026-07-22T07:32:24.814176,14.94218075,.01216261,64.7714,166.1100,44.4073,316.6714,0,U,40977,999,12000,.39709694E-3,.4767E-4,0
RAVAN,2016-067B,2026-07-21T05:57:09.394560,15.57919015,.00031216,97.9829,95.8383,189.7470,170.3724,0,U,41849,999,53299,.65042756E-3,.48686E-3,0
CELTEE 1,2016-067C,2026-07-22T02:25:25.624992,15.19987120,.0002468,98.0633,72.0491,101.0486,259.1025,0,U,41850,999,53118,.22489778E-3,.4764E-4,0
OPTICUBE 04,2016-067D,2026-07-22T03:22:05.585088,15.09792007,.0015619,98.0670,57.2449,5.0650,355.0733,0,U,41851,999,53044,.11815266E-3,.1842E-4,0
AEROCUBE 8D,2016-067E,2026-07-20T21:21:41.514912,15.24818070,.00042339,98.0635,74.6276,42.1068,318.0492,0,U,41852,999,53120,.20584939E-3,.5027E-4,0
AEROCUBE 8C,2016-067F,2026-07-22T03:44:46.166496,15.25090542,.00037746,98.0510,73.1735,312.5281,47.5636,0,U,41853,999,53139,.29981348E-3,.7422E-4,0
CORVUS BC2,2017-042X,2026-07-22T00:02:31.079904,15.06483073,.00127375,97.4098,3.0090,359.4620,0.6592,0,U,42846,999,49230,.19275524E-3,.2791E-4,0
CORVUS BC1,2017-042Y,2026-07-21T23:49:15.008448,15.06649513,.0010982,97.4131,3.8368,335.6933,24.3775,0,U,42847,999,49233,.20227378E-3,.2944E-4,0
MAKERSAT 0,2017-073D,2026-07-22T04:11:26.600352,15.33199943,.01057308,97.4572,85.9833,147.5495,213.2308,0,U,43016,999,47182,.59186915E-3,.22676E-3,0
SIRION PATHFINDER-2,2018-099B,2026-07-22T01:29:57.941952,15.14817039,.00092085,97.4235,251.2931,168.2488,191.8961,0,U,43759,999,41790,.22805602E-3,.4175E-4,0
CORVUS BC4,2018-099K,2026-07-22T01:12:43.532640,15.12739046,.00068752,97.4051,245.0119,231.7907,128.2706,0,U,43767,999,41767,.23797879E-3,.4109E-4,0
